HULIANWANG JISHU SHIYAN*
1 57288U 23095A   26282.91397836  .00000064  00000+0  89994-4 0  9997
2 57288  86.5031 325.0917 0016482 226.6778 133.2991 13.39548504159118
HULIANWANG JISHU SHIYAN*
1 57289U 23095B   26282.90492963  .00000064  00000+0  89574-4 0  9998
2 57289  86.5032 325.1050 0015115 224.0966 135.8973 13.39556912159112
CHUANGXIN 20A (CX-20A)  
1 58425U 23181A   26282.26282044 -.00000092  00000+0  64794-4 0  9992
2 58425  49.9590 268.4005 0013755 256.2612 103.6734 13.41505792141065
CHUANGXIN 20B (CX-20B)  
1 58426U 23181B   26282.27125738 -.00000088  00000+0  71707-4 0  9997
2 58426  49.9588 268.4309 0011834 259.4714 100.4830 13.41500872141059
CHUANGXIN 20C (CX-20C)  
1 58427U 23181C   26282.26906054 -.00000086  00000+0  74491-4 0  9996
2 58427  49.9587 268.4202 0011890 248.1971 111.7641 13.41495616141068
CHUANGXIN 19 (CX-19)    
1 58505U 23190A   26282.31034109  .00000058  00000+0  79411-4 0  9997
2 58505  86.4970 293.0865 0002194 100.1801 259.9590 13.39559754139978
HULIANWANG JISHU SHIYAN*
1 58691U 23212A   26282.88049981 -.00000095  00000+0  59011-4 0  9990
2 58691  50.0001 283.5442 0000357 121.0496 239.0416 13.41463327136642
HULIANWANG JISHU SHIYAN*
1 58692U 23212B   26282.87384386 -.00000099  00000+0  51582-4 0  9990
2 58692  49.9970 283.9061 0000561  96.2039 263.8902 13.41461844136646
HULIANWANG JISHU SHIYAN*
1 58693U 23212C   26282.87682457 -.00000090  00000+0  67976-4 0  9996
2 58693  49.9984 284.0288 0000523  65.5553 294.5379 13.41466647136659
HULIANWAN GAOGUI-01 (H*)
1 59069U 24040A   26282.74253742  .00000146  00000+0  00000+0 0  9992
2 59069   0.0998 342.2450 0001978  22.7765 314.2699  1.00274169  8474
HULIANWAN GAOGUI-02 (H*)
1 60327U 24135A   26282.90876481 -.00000182  00000+0  00000+0 0  9996
2 60327   0.0728 352.1831 0004432 349.1406 157.4907  1.00273516  8646
HULIANWAN GAOGUI-03 (H*)
1 61503U 24181A   26283.24408172 -.00000249  00000+0  00000+0 0  9994
2 61503   0.0812 355.0292 0000553  72.1265 322.4443  1.00269130  7977
OBJECT B                
1 62186U 24226B   26282.25938039 -.00000078  00000+0  89524-4 0  9995
2 62186  50.0040 270.9190 0011738  58.7624 301.4403 13.41510365 91020
HULIANWANG DIGUI-01     
1 62323U 24240A   26282.90705408  .00000042  00000+0  64276-4 0  9995
2 62323  86.4948 304.5447 0001531  93.1412 266.9897 13.24415361 87826
HULIANWANG DIGUI-02     
1 62324U 24240B   26282.91453269  .00000048  00000+0  78160-4 0  9995
2 62324  86.4977 304.7338 0001545  91.6398 268.4913 13.24412787 87837
HULIANWANG DIGUI-03     
1 62325U 24240C   26282.89956561  .00000036  00000+0  48631-4 0  9993
2 62325  86.4930 304.4299 0001546  95.7377 264.3934 13.24414006 87826
HULIANWANG DIGUI-04     
1 62326U 24240D   26282.89201287  .00000031  00000+0  38769-4 0  9998
2 62326  86.4940 304.4837 0001461  99.3172 260.8127 13.24414230 87829
HULIANWANG DIGUI-05     
1 62327U 24240E   26282.88441612  .00000053  00000+0  88390-4 0  9995
2 62327  86.4993 304.8159 0001496 102.7035 257.4267 13.24415100 87828
HULIANWANG DIGUI-06     
1 62328U 24240F   26282.94501776  .00000076  00000+0  14247-3 0  9995
2 62328  86.4930 304.3827 0001366  93.9653 266.1637 13.24412522 87834
HULIANWANG DIGUI-07     
1 62329U 24240G   26282.93727924  .00000088  00000+0  17182-3 0  9994
2 62329  86.4899 304.1910 0001489  94.1323 265.9982 13.24415257 87831
HULIANWANG DIGUI-08     
1 62330U 24240H   26282.87683697  .00000064  00000+0  11426-3 0  9996
2 62330  86.4984 304.7579 0001459 104.7605 255.3691 13.24415364 87821
HULIANWANG DIGUI-09     
1 62331U 24240J   26282.92980559  .00000081  00000+0  15372-3 0  9993
2 62331  86.4949 304.5632 0001555  95.0111 265.1200 13.24413924 87827
HULIANWANG DIGUI-10     
1 62332U 24240K   26282.92220139  .00000070  00000+0  12917-3 0  9995
2 62332  86.4980 304.7524 0001428  94.5232 265.6065 13.24414800 87820
HULIANWANG DIGUI-11     
1 62971U 25030A   26282.88406447 -.00000087  00000+0  78991-4 0  9999
2 62971  49.9999 184.4306 0000824 100.9274 259.1691 13.29328413 81119
HULIANWANG DIGUI-12     
1 62972U 25030B   26282.89252996 -.00000093  00000+0  65915-4 0  9998
2 62972  50.0014 184.5464 0000834  98.2476 261.8490 13.29326149 81112
HULIANWANG DIGUI-13     
1 62973U 25030C   26282.87560922 -.00000092  00000+0  68941-4 0  9999
2 62973  50.0018 184.4762 0000771  85.4165 274.6796 13.29327950 81112
HULIANWANG DIGUI-14     
1 62974U 25030D   26282.92575453 -.00000087  00000+0  78995-4 0  9995
2 62974  50.0023 184.1025 0000726  85.0973 274.9982 13.29328531 81128
HULIANWANG DIGUI-15     
1 62975U 25030E   26282.86726369 -.00000088  00000+0  77578-4 0  9990
2 62975  50.0018 184.4361 0000740  93.0933 267.0024 13.29328370 81110
HULIANWANG DIGUI-16     
1 62976U 25030F   26282.91744024 -.00000092  00000+0  68287-4 0  9997
2 62976  50.0041 184.1401 0000747  84.0820 276.0137 13.29329320 81123
HULIANWANG DIGUI-17     
1 62977U 25030G   26282.90897547 -.00000096  00000+0  59594-4 0  9991
2 62977  50.0053 184.1559 0000865  91.3416 268.7556 13.29329739 81121
HULIANWANG DIGUI-18     
1 62978U 25030H   26282.90074795 -.00000097  00000+0  59131-4 0  9992
2 62978  50.0058 184.1306 0000905  91.6576 268.4400 13.29327082 81126
HULIANWANG DIGUI-19     
1 62979U 25030J   26282.93458785 -.00000096  00000+0  60573-4 0  9992
2 62979  50.0042 184.2382 0000892  84.9341 275.1633 13.29322626 81127
HULIANWANG JISHU SHIYAN 6A
1 63428U 25067A   25119.18231352  .00082526  00000+0  18519-2 0  9994
2 63428  54.9952  83.0088 0008340  17.5247 342.6069 15.42707415  4322
HULIANWANG JISHU SHIYAN*
1 63429U 25067B   26282.94365857  .00010207  00000+0  49226-3 0  9996
2 63429  54.9974 246.1501 0003158 237.3177 122.7538 15.19296217 85385
HULIANWANG JISHU SHIYAN*
1 63430U 25067C   26282.94581947  .00011287  00000+0  54307-3 0  9993
2 63430  54.9983 246.2126 0003697 231.7732 128.2955 15.19271140 85375
HULIANWANG JISHU SHIYAN*
1 63431U 25067D   26282.94472969  .00009771  00000+0  47153-3 0  9993
2 63431  54.9969 246.1738 0001205 221.1312 138.9617 15.19323514 85374
HULIANWANG DIGUI-20     
1 63687U 25086A   26282.93356380 -.00000152  00000+0 -38749-3 0  9991
2 63687  86.4979 274.4628 0001486  78.6621 281.4680 13.24406952 70065
HULIANWANG DIGUI-21     
1 63688U 25086B   26282.94124181 -.00000068  00000+0 -19268-3 0  9996
2 63688  86.5007 274.5492 0001522  74.4650 285.6652 13.24405550 70053
HULIANWANG DIGUI-22     
1 63689U 25086C   26282.94873597 -.00000159  00000+0 -40428-3 0  9992
2 63689  86.4972 274.3760 0001449  79.7815 280.3482 13.24405665 70059
HULIANWANG DIGUI-23     
1 63690U 25086D   26282.96383603 -.00000072  00000+0 -20290-3 0  9999
2 63690  86.5014 274.5955 0001450  79.1085 281.0212 13.24405835 70050
HULIANWANG DIGUI-24     
1 63691U 25086E   26282.89584141 -.00000074  00000+0 -20727-3 0  9999
2 63691  86.5020 274.6594 0001487  75.7658 284.3641 13.24406325 70042
HULIANWANG DIGUI-25     
1 63692U 25086F   26282.90342979 -.00000073  00000+0 -20508-3 0  9999
2 63692  86.4959 274.3496 0001541  77.9710 282.1596 13.24405986 70042
HULIANWANG DIGUI-26     
1 63693U 25086G   26282.88079567 -.00000067  00000+0 -19109-3 0  9995
2 63693  86.5008 274.5862 0001324  71.8348 288.2930 13.24404940 70045
HULIANWANG DIGUI-27     
1 63694U 25086H   26282.91083913 -.00000155  00000+0 -39471-3 0  9992
2 63694  86.4969 274.4014 0001476  76.3879 283.7419 13.24407551 70049
HULIANWANG DIGUI-28     
1 63695U 25086J   26282.92599830 -.00000066  00000+0 -18798-3 0  9994
2 63695  86.4933 274.2255 0001448  80.8967 279.2331 13.24406655 70040
HULIANWANG DIGUI-29     
1 63696U 25086K   26282.91845370 -.00000067  00000+0 -19009-3 0  9994
2 63696  86.4961 274.3672 0001537  76.3078 283.8228 13.24407255 70041
HULIANWANG DIGUI-30     
1 64283U 25121A   26282.92603899  .00000062  00000+0  11068-3 0  9996
2 64283  86.5014 334.8710 0001890 107.8554 252.2787 13.24411695 65340
HULIANWANG DIGUI-31     
1 64284U 25121B   26282.91829853  .00000048  00000+0  77074-4 0  9990
2 64284  86.5035 334.9673 0001859 107.4400 252.6937 13.24413056 65348
HULIANWANG DIGUI-32     
1 64285U 25121C   26282.91073461  .00000048  00000+0  77399-4 0  9997
2 64285  86.4975 334.6754 0001765 104.7899 255.3431 13.24413777 65345
HULIANWANG DIGUI-33     
1 64286U 25121D   26282.90321586  .00000033  00000+0  43147-4 0  9999
2 64286  86.5034 334.9551 0001863 107.9686 252.1651 13.24413314 65345
HULIANWANG DIGUI-34     
1 64287U 25121E   26282.89565543  .00000030  00000+0  35687-4 0  9998
2 64287  86.5012 334.8423 0002082 114.8078 245.3273 13.24413676 65340
HULIANWANG DIGUI-35     
1 64956U 25159A   26282.93366099  .00000041  00000+0  62218-4 0  9994
2 64956  86.4930 243.6442 0003682 137.3878 222.7542 13.24405396 58311
HULIANWANG DIGUI-36     
1 64957U 25159B   26282.93004131  .00000040  00000+0  58219-4 0  9996
2 64957  86.4950 243.7276 0002183  73.3843 286.7530 13.24401171 58310
HULIANWANG DIGUI-37     
1 64958U 25159C   26282.92242380  .00000049  00000+0  79539-4 0  9993
2 64958  86.4891 243.4688 0002113  78.0283 282.1088 13.24401782 58318
HULIANWANG DIGUI-38     
1 64959U 25159D   26282.91491673  .00000046  00000+0  73971-4 0  9995
2 64959  86.4949 243.7205 0002054  78.3822 281.7543 13.24401870 58316
HULIANWANG DIGUI-39     
1 64960U 25159E   26282.90736552  .00000042  00000+0  63709-4 0  9998
2 64960  86.4925 243.6120 0002035  75.5819 284.5540 13.24401341 58312
HULIANWANG DIGUI-40     
1 65043U 25162A   26282.88987905 -.00000099  00000+0  53781-4 0  9994
2 65043  49.9988 214.5163 0000906   3.0255 357.0622 13.29328888 58605
HULIANWANG DIGUI-41     
1 65044U 25162B   26282.88152325 -.00000098  00000+0  57185-4 0  9996
2 65044  49.9999 214.5069 0000942   2.1001 357.9875 13.29325995 58618
HULIANWANG DIGUI-42     
1 65045U 25162C   26282.87325649 -.00000092  00000+0  69932-4 0  9994
2 65045  49.9964 214.3449 0000900   1.2674 358.8201 13.29326553 58615
HULIANWANG DIGUI-43     
1 65046U 25162D   26282.86479555 -.00000100  00000+0  51353-4 0  9998
2 65046  49.9981 214.3610 0000837   3.2496 356.8381 13.29327485 58610
HULIANWANG DIGUI-44     
1 65047U 25162E   26282.93194112 -.00000102  00000+0  46733-4 0  9998
2 65047  50.0008 214.1412 0000877 281.3437  78.7337 13.29323348 58637
HULIANWANG DIGUI-45     
1 65048U 25162F   26282.92329187 -.00000103  00000+0  45384-4 0  9992
2 65048  50.0038 214.1993 0000905   1.7362 358.3513 13.29328178 58626
HULIANWANG DIGUI-46     
1 65049U 25162G   26282.91495306 -.00000091  00000+0  70686-4 0  9998
2 65049  50.0056 214.2176 0000883   5.9376 354.1507 13.29323085 58626
HULIANWANG DIGUI-47     
1 65050U 25162H   26282.90651095 -.00000103  00000+0  46339-4 0  9990
2 65050  50.0021 214.0534 0000901   6.9255 353.1629 13.29331520 58621
HULIANWANG DIGUI-48     
1 65051U 25162J   26282.89821654 -.00000104  00000+0  42307-4 0  9991
2 65051  50.0031 214.0438 0000877   2.7134 357.3742 13.29327490 58621
HULIANWANG DIGUI-49     
1 65106U 25168A   26282.88546215 -.00000090  00000+0  73466-4 0  9998
2 65106  50.0024 274.5893 0007459  81.8412 278.3306 13.29327522 57948
HULIANWANG DIGUI-50     
1 65107U 25168B   26282.87705810 -.00000089  00000+0  76245-4 0  9992
2 65107  49.9994 274.4401 0008303  67.1793 292.9955 13.29327328 57940
HULIANWANG DIGUI-51     
1 65108U 25168C   26282.94344307 -.00000085  00000+0  83711-4 0  9993
2 65108  50.0031 274.2539 0009651  67.6517 292.5377 13.29324411 57957
HULIANWANG DIGUI-52     
1 65109U 25168D   26282.93537676 -.00000093  00000+0  67599-4 0  9991
2 65109  50.0025 274.1841 0009633  81.0706 279.1257 13.29328807 57957
HULIANWANG DIGUI-53     
1 65110U 25168E   26282.92672416 -.00000091  00000+0  70693-4 0  9991
2 65110  50.0033 274.1737 0008331  70.3646 289.8125 13.29326123 57951
HULIANWANG DIGUI-54     
1 65111U 25168F   26282.90172978 -.00000094  00000+0  64111-4 0  9999
2 65111  49.9983 273.8723 0010021  76.0999 284.0988 13.29332366 57957
HULIANWANG DIGUI-55     
1 65112U 25168G   26282.91868624 -.00000096  00000+0  61164-4 0  9998
2 65112  49.9989 273.9771 0011131  72.5846 287.6243 13.29318097 57951
HULIANWANG DIGUI-56     
1 65113U 25168H   26282.91034929 -.00000105  00000+0  41479-4 0  9990
2 65113  49.9980 273.9045 0011005  93.7038 266.5093 13.29327738 57956
HULIANWANG DIGUI-57     
1 65114U 25168J   26282.89342005 -.00000087  00000+0  80055-4 0  9997
2 65114  50.0008 273.9183 0008743  83.9920 276.1948 13.29332273 57967
HULIANWANG DIGUI-58     
1 65164U 25174A   26282.94928595  .00000004  00000+0 -24709-4 0  9992
2 65164  86.5023 213.2756 0001982  66.9372 293.1971 13.24401159 55986
HULIANWANG DIGUI-59     
1 65165U 25174B   26282.95687757  .00000007  00000+0 -16667-4 0  9993
2 65165  86.4984 213.1205 0001902  68.5970 291.5367 13.24401083 55981
HULIANWANG DIGUI-60     
1 65166U 25174C   26282.88890678  .00000017  00000+0  55641-5 0  9990
2 65166  86.5016 213.2797 0001942  65.3323 294.8013 13.24400355 55971
HULIANWANG DIGUI-61     
1 65167U 25174D   26282.89644431  .00000035  00000+0  48162-4 0  9995
2 65167  86.5024 213.3176 0002127  65.3260 294.8095 13.24400928 55975
HULIANWANG DIGUI-62     
1 65168U 25174E   26282.90376356  .00000041  00000+0  61324-4 0  9998
2 65168  86.4966 213.0815 0002010  62.5547 297.5791 13.24402836 55978
HULIANWANG DIGUI-63     
1 65169U 25174F   26282.91162542  .00000051  00000+0  84011-4 0  9999
2 65169  86.5018 213.2991 0002120  62.2854 297.8495 13.24396980 55971
HULIANWANG DIGUI-64     
1 65170U 25174G   26282.91907173  .00000044  00000+0  69280-4 0  9991
2 65170  86.4978 213.1353 0001953  63.5490 296.5844 13.24401253 55975
HULIANWANG DIGUI-65     
1 65171U 25174H   26282.93414088  .00000020  00000+0  13410-4 0  9990
2 65171  86.4942 212.9930 0002090  66.7278 293.4076 13.24400883 55978
HULIANWANG DIGUI-66     
1 65172U 25174J   26282.92664695  .00000036  00000+0  48810-4 0  9990
2 65172  86.4976 213.1356 0001943  65.4305 294.7031 13.24400655 55976
HULIANWANG DIGUI-67     
1 65173U 25174K   26282.94162717  .00000008  00000+0 -14608-4 0  9999
2 65173  86.4988 213.1885 0001981  66.9425 293.1918 13.24402103 55942
HULIANWANG DIGUI-68     
1 65228U 25178A   26282.88807249  .00000054  00000+0  91040-4 0  9998
2 65228  86.5007 334.8400 0001793 108.0891 252.0439 13.24414482 55491
HULIANWANG DIGUI-69     
1 65229U 25178B   26282.95606741  .00000074  00000+0  13909-3 0  9990
2 65229  86.5028 334.8943 0001812 105.3631 254.7703 13.24416427 55507
HULIANWANG DIGUI-70     
1 65230U 25178C   26282.94863185  .00000077  00000+0  14618-3 0  9999
2 65230  86.4965 334.6365 0001844 108.4346 251.6989 13.24413838 55501
HULIANWANG DIGUI-71     
1 65231U 25178D   26282.94106282  .00000076  00000+0  14333-3 0  9991
2 65231  86.5025 334.8770 0001834 107.9578 252.1756 13.24414682 55508
HULIANWANG DIGUI-72     
1 65232U 25178E   26282.93354858  .00000073  00000+0  13625-3 0  9995
2 65232  86.5007 334.8019 0001822 108.1130 252.0203 13.24413955 55507
HULIANWANG DIGUI-73     
1 65305U 25187A   26282.93644619 -.00000085  00000+0  84020-4 0  9995
2 65305  50.0037 154.3394 0000964  70.1564 289.9412 13.29327551 54964
HULIANWANG DIGUI-74     
1 65306U 25187B   26282.91998086 -.00000078  00000+0  98993-4 0  9990
2 65306  50.0080 154.3889 0000971  71.6717 288.4261 13.29325531 54968
HULIANWANG DIGUI-75     
1 65307U 25187C   26282.90321212 -.00000076  00000+0  10358-3 0  9997
2 65307  50.0072 154.2770 0000963  70.3131 289.7846 13.29326588 54961
HULIANWANG DIGUI-76     
1 65308U 25187D   26282.88646847 -.00000082  00000+0  91140-4 0  9995
2 65308  49.9996 154.6057 0000978  65.4095 294.6879 13.29327795 54957
HULIANWANG DIGUI-77     
1 65309U 25187E   26282.87803429 -.00000081  00000+0  92477-4 0  9999
2 65309  50.0030 154.6720 0001166  69.7378 290.3620 13.29327734 54958
HULIANWANG DIGUI-78     
1 65310U 25187F   26282.91166150 -.00000079  00000+0  96452-4 0  9993
2 65310  50.0096 154.3980 0000961  70.0882 290.0094 13.29326455 54966
HULIANWANG DIGUI-79     
1 65311U 25187G   26282.89504441 -.00000087  00000+0  79835-4 0  9995
2 65311  50.0026 154.7444 0000930  72.6236 287.4738 13.29323503 54951
HULIANWANG DIGUI-80     
1 65312U 25187H   26282.94493137 -.00000081  00000+0  92194-4 0  9998
2 65312  50.0016 154.3137 0001162  69.8678 290.2319 13.29326681 54960
HULIANWANG DIGUI-81     
1 65313U 25187J   26282.92852946 -.00000073  00000+0  10967-3 0  9992
2 65313  50.0056 154.3570 0000974  70.4372 289.6606 13.29323365 54973
HULIANWANG JISHU SHIYAN*
1 65617U 25209A   26282.43310336 -.00000078  00000+0  89732-4 0  9994
2 65617  49.9992 300.7302 0000485 317.2907  42.7932 13.41477135 53001
HULIANWANG JISHU SHIYAN*
1 65618U 25209B   26282.72721287 -.00000073  00000+0  98188-4 0  9998
2 65618  49.9997 299.6262 0000840 121.6500 238.4460 13.41474627 53013
HULIANWANG JISHU SHIYAN*
1 65619U 25209C   26282.42644773 -.00000050  00000+0  13965-3 0  9994
2 65619  50.0000 300.0632 0001402 131.5249 228.5749 13.41477490 52970
HULIANWANG JISHU SHIYAN*
1 65620U 25209D   26282.79421572 -.00000061  00000+0  11988-3 0  9991
2 65620  50.0006 298.6580 0004239   8.4112 351.6836 13.41486081 53022
HULIANWANG DIGUI-82     
1 65817U 25220A   26282.16664484  .00000046  00000+0  73934-4 0  9996
2 65817  86.5042   5.3921 0001181 111.8291 248.2969 13.24412617 50004
HULIANWANG DIGUI-83     
1 65818U 25220B   26281.78140449  .00000033  00000+0  42641-4 0  9991
2 65818  86.5065   5.5998 0001207 112.8497 247.2765 13.24412660 49957
HULIANWANG DIGUI-84     
1 65819U 25220C   26282.68040995  .00000033  00000+0  43316-4 0  9997
2 65819  86.5002   5.0562 0001222 111.1797 248.9468 13.24412372 50076
HULIANWANG DIGUI-85     
1 65820U 25220D   26282.21963264  .00000026  00000+0  25758-4 0  9993
2 65820  86.5063   5.4334 0001204 107.0728 253.0538 13.24411333 50019
HULIANWANG DIGUI-86     
1 65821U 25220E   26282.51422946  .00000042  00000+0  64637-4 0  9991
2 65821  86.5042   5.2482 0001760 114.9443 245.1874 13.24414228 50052
HULIANWANG DIGUI-87     
1 65995U 25231A   26281.98666219 -.00000078  00000+0  98973-4 0  9998
2 65995  49.9983 127.6601 0000653 109.7161 250.3781 13.29329435 48021
HULIANWANG DIGUI-88     
1 65996U 25231B   26282.82217060 -.00000081  00000+0  93801-4 0  9998
2 65996  49.9969 124.7025 0000760 120.4623 239.6324 13.29327764 48134
HULIANWANG DIGUI-89     
1 65997U 25231C   26281.82796440 -.00000083  00000+0  88881-4 0  9996
2 65997  49.9949 128.0590 0000670 117.9734 242.1206 13.29328691 48005
HULIANWANG DIGUI-90     
1 65998U 25231D   26282.27070465 -.00000086  00000+0  81205-4 0  9995
2 65998  49.9978 126.4789 0000725 120.8067 239.2877 13.29330625 48060
HULIANWANG DIGUI-91     
1 65999U 25231E   26282.03678955 -.00000085  00000+0  83394-4 0  9998
2 65999  49.9995 127.2985 0000727 118.9063 241.1882 13.29330804 48037
HULIANWANG DIGUI-92     
1 66000U 25231F   26282.25399462 -.00000085  00000+0  83873-4 0  9991
2 66000  50.0035 126.5580 0000660 119.6821 240.4117 13.29328428 48063
HULIANWANG DIGUI-93     
1 66001U 25231G   26282.31244454 -.00000081  00000+0  91774-4 0  9994
2 66001  50.0006 126.1152 0000702 119.8924 240.2018 13.29329081 48071
HULIANWANG DIGUI-94     
1 66002U 25231H   26282.24576218 -.00000082  00000+0  90091-4 0  9995
2 66002  50.0042 126.5365 0000715 121.3170 238.7773 13.29330000 48069
HULIANWANG DIGUI-95     
1 66003U 25231J   26282.83037302 -.00000078  00000+0  98958-4 0  9992
2 66003  50.0015 124.2172 0000679 119.1033 240.9907 13.29328735 48148
HULIANWANG DIGUI-96     
1 66412U 25258A   26282.32770762 -.00000102  00000+0  47063-4 0  9992
2 66412  50.0038 246.2692 0000330  18.5355 341.5529 13.29331990 44918
HULIANWANG DIGUI-97     
1 66413U 25258B   26282.58672330 -.00000104  00000+0  42881-4 0  9998
2 66413  50.0000 245.5437 0000298  46.6410 313.4487 13.29323380 44942
HULIANWANG DIGUI-98     
1 66414U 25258C   26282.57865626 -.00000107  00000+0  36326-4 0  9990
2 66414  50.0042 245.6037 0000345  53.0415 307.0489 13.29328323 44949
HULIANWANG DIGUI-99     
1 66415U 25258D   26281.94352084 -.00000102  00000+0  48416-4 0  9998
2 66415  50.0040 247.5774 0000233  29.4482 330.6403 13.29331767 44858
HULIANWANG DIGUI-100    
1 66416U 25258E   26282.57028767 -.00000101  00000+0  49073-4 0  9996
2 66416  50.0041 245.5659 0000174  14.3076 345.7801 13.29328527 44956
HULIANWANG DIGUI-101    
1 66417U 25258F   26282.63682340 -.00000100  00000+0  51220-4 0  9993
2 66417  49.9992 245.1117 0000349   2.1314 357.9559 13.29329578 44961
HULIANWANG DIGUI-102    
1 66418U 25258G   26282.61201516 -.00000109  00000+0  32954-4 0  9996
2 66418  50.0006 245.0162 0000372  23.9219 336.1670 13.29327990 44959
HULIANWANG DIGUI-103    
1 66419U 25258H   26281.92679929 -.00000103  00000+0  45461-4 0  9998
2 66419  49.9999 247.3793 0000156  21.3014 338.7865 13.29325625 44865
HULIANWANG DIGUI-104    
1 66420U 25258J   26282.59502789 -.00000111  00000+0  27195-4 0  9996
2 66420  50.0016 244.9593 0000351  30.3578 329.7314 13.29330925 44940
HULIANWANG DIGUI-105    
1 66915U 25285A   26282.74972963 -.00000094  00000+0  65514-4 0  9994
2 66915  50.0038  95.3477 0000168 185.3179 174.7692 13.29326992 41297
HULIANWANG DIGUI-106    
1 66916U 25285B   26282.74132133 -.00000099  00000+0  54845-4 0  9992
2 66916  50.0051  95.3321 0000183 188.8567 171.2302 13.29327026 41296
HULIANWANG DIGUI-107    
1 66917U 25285C   26282.50713967 -.00000099  00000+0  54597-4 0  9991
2 66917  50.0015  96.0115 0000142 172.9531 187.1343 13.29328578 41267
HULIANWANG DIGUI-108    
1 66918U 25285D   26282.64908837 -.00000107  00000+0  35838-4 0  9996
2 66918  50.0036  95.4804 0000108 169.7928 190.2947 13.29330021 41288
HULIANWANG DIGUI-109    
1 66919U 25285E   26281.88942339 -.00000094  00000+0  64725-4 0  9999
2 66919  50.0061  98.1963 0000133  91.8939 268.1949 13.29321167 41196
HULIANWANG DIGUI-110    
1 66920U 25285F   26282.78277041 -.00000101  00000+0  49524-4 0  9991
2 66920  50.0093  94.9924 0000157 151.0102 209.0779 13.29330567 41303
HULIANWANG DIGUI-111    
1 66921U 25285G   26282.77449102 -.00000095  00000+0  62564-4 0  9991
2 66921  50.0110  94.9898 0000152 148.8066 211.2816 13.29330170 41309
HULIANWANG DIGUI-112    
1 66922U 25285H   26282.76608298 -.00000095  00000+0  62699-4 0  9993
2 66922  50.0073  94.8582 0000148 177.9937 182.0936 13.29330115 41309
HULIANWANG DIGUI-113    
1 66923U 25285J   26282.45722289 -.00000090  00000+0  72774-4 0  9997
2 66923  50.0080  95.9171 0000151 182.8039 177.2832 13.29328590 41266
HULIANWANG DIGUI-114    
1 66953U 25287A   26282.59752760  .00000030  00000+0  35280-4 0  9998
2 66953  86.4919 243.6840 0001695  86.8170 273.3158 13.24403333 40487
HULIANWANG DIGUI-115    
1 66954U 25287B   26282.59030497  .00000022  00000+0  17324-4 0  9995
2 66954  86.4935 243.7294 0001565  96.8276 263.3036 13.24394149 40482
HULIANWANG DIGUI-116    
1 66955U 25287C   26282.65796579  .00000014  00000+0 -14733-5 0  9997
2 66955  86.4875 243.5167 0001696  91.0849 269.0480 13.24402909 40492
HULIANWANG DIGUI-117    
1 66956U 25287D   26282.95251872  .00000020  00000+0  12876-4 0  9994
2 66956  86.4936 243.5960 0003226  77.2599 282.8895 13.24405995 40537
HULIANWANG DIGUI-118    
1 66957U 25287E   26282.94498330  .00000031  00000+0  38852-4 0  9990
2 66957  86.4912 243.5194 0001681  88.6922 271.4405 13.24405417 40530
HULIANWANG DIGUI-119    
1 67059U 25295A   26282.65489010 -.00000068  00000+0  12093-3 0  9995
2 67059  50.0052 335.2373 0000371 154.7922 205.2968 13.29327182 40721
HULIANWANG DIGUI-120    
1 67060U 25295B   26282.41255344 -.00000079  00000+0  96551-4 0  9996
2 67060  50.0060 335.9729 0000444 144.9889 215.1013 13.29324386 40698
HULIANWANG DIGUI-121    
1 67061U 25295C   26282.87197423 -.00000079  00000+0  97385-4 0  9996
2 67061  50.0018 334.2991 0000385 147.1952 212.8944 13.29328215 40754
HULIANWANG DIGUI-122    
1 67062U 25295D   26282.85530892 -.00000082  00000+0  91638-4 0  9995
2 67062  50.0052 334.2985 0000384 147.2365 212.8531 13.29326989 40752
HULIANWANG DIGUI-123    
1 67063U 25295E   26282.17040166 -.00000078  00000+0  98967-4 0  9998
2 67063  50.0057 336.6863 0000372 158.8439 201.2449 13.29326810 40669
HULIANWANG DIGUI-124    
1 67064U 25295F   26282.53779564 -.00000081  00000+0  93486-4 0  9995
2 67064  50.0013 335.1893 0000400 150.0126 210.0769 13.29327445 40712
HULIANWANG DIGUI-125    
1 67065U 25295G   26282.67977223 -.00000081  00000+0  93347-4 0  9999
2 67065  50.0003 334.5845 0000357 148.5825 211.5069 13.29327070 40736
HULIANWANG DIGUI-126    
1 67066U 25295H   26282.52119510 -.00000071  00000+0  11341-3 0  9993
2 67066  50.0008 335.0880 0000306 139.4639 220.6256 13.29327563 40717
HULIANWANG DIGUI-127    
1 67067U 25295J   26282.13689736 -.00000082  00000+0  90569-4 0  9995
2 67067  50.0025 336.4385 0000381 142.2254 217.8645 13.29323931 40669
HULIANWANG DIGUI-128    
1 67236U 25311A   26282.76042036 -.00000113  00000+0  23274-4 0  9991
2 67236  50.0085  64.6641 0000042 106.2548 253.8329 13.29328080 38585
HULIANWANG DIGUI-129    
1 67237U 25311B   26282.76861925 -.00000111  00000+0  28856-4 0  9997
2 67237  50.0076  64.6815 0000100 130.0172 230.0709 13.29329347 38588
HULIANWANG DIGUI-130    
1 67238U 25311C   26282.36779716 -.00000105  00000+0  40730-4 0  9998
2 67238  50.0055  66.5097 0000024  63.0466 297.0409 13.29328178 38520
HULIANWANG DIGUI-131    
1 67239U 25311D   26282.37618111 -.00000107  00000+0  36733-4 0  9991
2 67239  50.0051  66.5424 0000040  37.0958 322.9917 13.29327727 38527
HULIANWANG DIGUI-132    
1 67240U 25311E   26282.65176014 -.00000121  00000+0  67025-5 0  9990
2 67240  50.0063  65.3618 0000040 151.3435 208.7440 13.29328499 38567
HULIANWANG DIGUI-133    
1 67241U 25311F   26282.78545568 -.00000119  00000+0  10090-4 0  9995
2 67241  50.0107  64.8391 0000075 118.5142 241.5738 13.29328562 38585
HULIANWANG DIGUI-134    
1 67242U 25311G   26282.41795715 -.00000121  00000+0  74780-5 0  9997
2 67242  50.0036  66.0697 0000048 106.6749 253.4128 13.29326205 38533
HULIANWANG DIGUI-135    
1 67243U 25311H   26282.43459556 -.00000118  00000+0  13586-4 0  9992
2 67243  50.0022  66.1234 0000026 110.6064 249.4811 13.29327843 38531
HULIANWANG DIGUI-136    
1 67244U 25311J   26282.77703107 -.00000119  00000+0  11093-4 0  9996
2 67244  50.0094  64.7680 0000123 115.6380 244.4505 13.29328822 38582
HULIANWANG DIGUI-137    
1 67435U 26007A   26282.35327035 -.00000120  00000+0  79021-5 0  9995
2 67435  50.0094  36.4200 0000189  88.6705 271.4189 13.29331195 35975
HULIANWANG DIGUI-138    
1 67436U 26007B   26282.59564530 -.00000118  00000+0  14017-4 0  9995
2 67436  50.0076  35.6548 0000169  89.8557 270.2335 13.29329476 36002
HULIANWANG DIGUI-139    
1 67437U 26007C   26281.68483625 -.00000108  00000+0  34326-4 0  9994
2 67437  50.0046  38.7813 0000016  46.7124 313.3749 13.29331145 35881
HULIANWANG DIGUI-140    
1 67438U 26007D   26282.60392256 -.00000119  00000+0  11904-4 0  9996
2 67438  50.0072  35.6877 0000194  99.3382 260.7512 13.29330305 36009
HULIANWANG DIGUI-141    
1 67439U 26007E   26282.57041885 -.00000123  00000+0  27799-5 0  9997
2 67439  50.0065  35.4963 0000168  94.4351 265.6540 13.29331196 36003
HULIANWANG DIGUI-142    
1 67440U 26007F   26282.26142116 -.00000120  00000+0  80194-5 0  9999
2 67440  50.0141  36.6971 0000204  94.3086 265.7810 13.29331143 35964
HULIANWANG DIGUI-143    
1 67441U 26007G   26282.70429129 -.00000124  00000+0 -80676-6 0  9992
2 67441  50.0121  34.9946 0000259 130.4642 229.6253 13.29329262 36023
HULIANWANG DIGUI-144    
1 67442U 26007H   26282.69560977 -.00000123  00000+0  32935-5 0  9990
2 67442  50.0109  34.9274 0000231  92.4592 267.6307 13.29330502 36026
HULIANWANG DIGUI-145    
1 67443U 26007J   26282.68752304 -.00000119  00000+0  10438-4 0  9995
2 67443  50.0111  34.8930 0000213 108.8592 251.2303 13.29330192 36020
HULIANWANG DIGUI-146    
1 67522U 26013A   26282.35647923 -.00000093  00000+0  67656-4 0  9999
2 67522  50.0092 306.4598 0000333 170.9293 189.1585 13.29325696 35231
HULIANWANG DIGUI-147    
1 67523U 26013B   26282.49827047 -.00000071  00000+0  11477-3 0  9997
2 67523  50.0055 305.8090 0000323 176.7438 183.3437 13.29324086 35251
HULIANWANG DIGUI-148    
1 67524U 26013C   26282.79054719 -.00000075  00000+0  10509-3 0  9998
2 67524  50.0096 304.7750 0000307 182.5585 177.5286 13.29332342 35293
HULIANWANG DIGUI-149    
1 67525U 26013D   26282.78234060 -.00000085  00000+0  84904-4 0  9999
2 67525  50.0088 304.7194 0000479 159.9569 200.1322 13.29330785 35290
HULIANWANG DIGUI-150    
1 67526U 26013E   26282.38989398 -.00000081  00000+0  92082-4 0  9999
2 67526  50.0050 305.8989 0000367 176.0856 184.0019 13.29329717 35262
HULIANWANG DIGUI-151    
1 67527U 26013F   26282.09739230 -.00000079  00000+0  96150-4 0  9993
2 67527  50.0096 307.1142 0000357 180.2851 179.8021 13.29331538 35203
HULIANWANG DIGUI-152    
1 67528U 26013G   26282.45642005 -.00000150  00000+0 -55271-4 0  9997
2 67528  50.0053 305.5692 0000252 184.4492 175.6378 13.29331745 35254
HULIANWANG DIGUI-153    
1 67529U 26013H   26282.74911928 -.00000085  00000+0  85110-4 0  9994
2 67529  50.0046 304.4538 0000386 178.1410 181.9464 13.29329102 35285
HULIANWANG DIGUI-154    
1 67530U 26013J   26282.74050918 -.00000081  00000+0  92028-4 0  9991
2 67530  50.0069 304.4634 0000315 180.2649 179.8223 13.29330822 35289
HULIANWANG DIGUI-155    
1 68129U 26047A   26282.50170807 -.00000094  00000+0  63877-4 0  9991
2 68129  50.0054   6.3828 0001013 156.6347 203.4571 13.29330545 28272
HULIANWANG DIGUI-156    
1 68130U 26047B   26282.49371461 -.00000095  00000+0  63129-4 0  9991
2 68130  50.0056   6.3436 0001059 161.4087 198.6824 13.29320700 28263
HULIANWANG DIGUI-157    
1 68131U 26047C   26282.93633051 -.00000096  00000+0  59914-4 0  9995
2 68131  50.0027   4.6343 0000942 161.7963 198.2943 13.29326429 28336
HULIANWANG DIGUI-158    
1 68132U 26047D   26282.70234100 -.00000093  00000+0  66213-4 0  9990
2 68132  50.0071   5.4762 0001005 154.6710 205.4212 13.29329207 28294
HULIANWANG DIGUI-159    
1 68133U 26047E   26282.61897508 -.00000098  00000+0  56279-4 0  9994
2 68133  50.0040   5.6516 0000964 150.0830 210.0097 13.29325034 28293
HULIANWANG DIGUI-160    
1 68134U 26047F   26282.60195353 -.00000088  00000+0  78223-4 0  9995
2 68134  50.0098   5.6606 0000806 140.0074 220.0857 13.29330574 28280
HULIANWANG DIGUI-161    
1 68135U 26047G   26282.61037319 -.00000092  00000+0  68764-4 0  9998
2 68135  50.0118   5.7376 0000926 154.3118 205.7801 13.29329675 28299
HULIANWANG DIGUI-162    
1 68136U 26047H   26282.51890956 -.00000087  00000+0  78963-4 0  9998
2 68136  50.0085   5.8725 0001047 159.3469 200.7446 13.29325426 28279
HULIANWANG DIGUI-163    
1 68137U 26047J   26282.66046002 -.00000083  00000+0  89311-4 0  9995
2 68137  50.0091   5.2935 0000969 162.7656 197.3249 13.29330579 28303
HULIANWANG DIGUI-164    
1 68656U 26076A   26282.88465743  .00000056  00000+0  97425-4 0  9998
2 68656  86.5037   5.1654 0001999 113.7604 246.3740 13.24408021 24550
HULIANWANG DIGUI-165    
1 68657U 26076B   26282.87693583  .00000058  00000+0  10124-3 0  9995
2 68657  86.5060   5.2036 0001777 120.0434 240.0876 13.24410815 24553
HULIANWANG DIGUI-166    
1 68658U 26076C   26282.94508745  .00000060  00000+0  10664-3 0  9991
2 68658  86.5001   5.0630 0001780 119.0358 241.0954 13.24409585 24565
HULIANWANG DIGUI-167    
1 68659U 26076D   26282.93734459  .00000049  00000+0  79678-4 0  9992
2 68659  86.5055   5.1641 0001786 119.0405 241.0908 13.24411256 24564
HULIANWANG DIGUI-168    
1 68660U 26076E   26282.92997666  .00000040  00000+0  58262-4 0  9991
2 68660  86.5036   5.1246 0001779 119.4805 240.6507 13.24407203 24552
HULIANWANG JISHU SHIYAN*
1 68687U 26078A   26282.93752779  .00000030  00000+0  35808-4 0  9997
2 68687  86.4990 243.7253 0002101  70.2399 289.8962 13.24401630 24164
HULIANWANG JISHU SHIYAN*
1 68831U 26091A   26282.87664301  .00002662  00000+0  13938-3 0  9991
2 68831  54.9976 240.5631 0009466 349.3193  10.7624 15.19302763 25639
HULIANWANG JISHU SHIYAN*
1 68832U 26091B   26282.94671145  .00000474  00000+0  37088-4 0  9996
2 68832  54.9977 240.2955 0008615 340.3351  19.7335 15.19232349 25640
HULIANWANG JISHU SHIYAN*
1 68833U 26091C   26282.87765245  .00018079  00000+0  85994-3 0  9992
2 68833  54.9970 240.5553 0006695  10.1451 349.9702 15.19272344 25634
HULIANWANG JISHU SHIYAN*
1 68834U 26091D   26282.86848926  .00006082  00000+0  29629-3 0  9994
2 68834  54.9975 240.5039 0015251  26.0835 334.0950 15.19597946 25637
HULIANWANG JISHU SHIYAN*
1 69320U 26120A   26282.61650785  .00012745  00000+0  60784-3 0  9995
2 69320  55.0036 241.6676 0008365 219.5669 140.4741 15.19443156 20173
HULIANWANG JISHU SHIYAN*
1 69321U 26120B   26282.12776383  .00000538  00000+0  33743-4 0  9998
2 69321  54.9966 237.3715 0005495 224.9788 135.0790 15.25939635 20198
HULIANWANG JISHU SHIYAN*
1 69322U 26120C   26282.58397248  .00015663  00000+0  42205-3 0  9995
2 69322  54.9954 233.2879 0007209 246.5089 113.5181 15.38032831 20293
HULIANWANG JISHU SHIYAN*
1 69323U 26120D   26282.41824050  .00003058  00000+0  15785-3 0  9992
2 69323  55.0000 241.8185 0009573 256.2241 103.7714 15.19310087 20156
HULIANWANG DIGUI-169    
1 69572U 26137A   26282.81294760 -.00000093  00000+0  66144-4 0  9992
2 69572  50.0004 185.0262 0000580  67.6816 292.4118 13.29327757 15572
HULIANWANG DIGUI-170    
1 69573U 26137B   26282.80459964 -.00000092  00000+0  69919-4 0  9993
2 69573  50.0001 184.9799 0000576  67.8354 292.2580 13.29329360 15581
HULIANWANG DIGUI-171    
1 69574U 26137C   26282.94656122 -.00000083  00000+0  87551-4 0  9996
2 69574  49.9963 184.3543 0000366 187.0724 173.0143 13.29330137 15596
HULIANWANG DIGUI-172    
1 69575U 26137D   26282.93831870 -.00000081  00000+0  93641-4 0  9996
2 69575  49.9962 184.3136 0000555  66.8435 293.2496 13.29325265 15599
HULIANWANG DIGUI-173    
1 69576U 26137E   26282.92991544 -.00000082  00000+0  90270-4 0  9997
2 69576  50.0020 184.3361 0000561  67.3567 292.7365 13.29327640 15595
HULIANWANG DIGUI-174    
1 69577U 26137F   26282.92159156 -.00000086  00000+0  83025-4 0  9997
2 69577  50.0011 184.2859 0000585  66.0192 294.0741 13.29326438 15602
HULIANWANG DIGUI-175    
1 69578U 26137G   26282.91316795 -.00000093  00000+0  67544-4 0  9997
2 69578  49.9963 184.1882 0000565  70.0638 290.0295 13.29328703 15606
HULIANWANG DIGUI-176    
1 69579U 26137H   26282.90488511 -.00000092  00000+0  68316-4 0  9990
2 69579  49.9996 184.1834 0000630  63.1716 296.9221 13.29326406 15593
HULIANWANG DIGUI-177    
1 69580U 26137J   26282.74614083 -.00000095  00000+0  63415-4 0  9997
2 69580  49.9977 184.6584 0000551  67.3651 292.7279 13.29327408 15586
CHUANG XIN 26 (CX-26)   
1 69972U 26158A   26282.30648312  .00000111  00000+0  11451-3 0  9999
2 69972  49.9835 276.9957 0005193 248.1154 111.9208 14.25135949 12986
HULIANWANG DIGUI-178    
1 00203U 26176A   26282.96588844 -.00000077  00000+0  10200-3 0  9999
2 00203  49.9878 154.3931 0000567  89.7853 270.3084 13.29317747  8888
HULIANWANG DIGUI-179    
1 00204U 26176B   26282.65672289 -.00000086  00000+0  81875-4 0  9990
2 00204  49.9851 155.4184 0000630  90.1675 269.9269 13.29329256  8844
HULIANWANG DIGUI-180    
1 00205U 26176C   26282.72351132 -.00000079  00000+0  96855-4 0  9996
2 00205  49.9883 155.1238 0000616  92.3207 267.7736 13.29328541  8858
HULIANWANG DIGUI-181    
1 00206U 26176D   26282.71509788 -.00000081  00000+0  93581-4 0  9994
2 00206  49.9912 155.0979 0000628  90.5927 269.5017 13.29330288  8858
HULIANWANG DIGUI-182    
1 00207U 26176E   26282.93232797 -.00000076  00000+0  10414-3 0  9999
2 00207  49.9872 154.2287 0000592  94.6709 265.4231 13.29328876  8886
HULIANWANG DIGUI-183    
1 00208U 26176F   26282.92397432 -.00000075  00000+0  10601-3 0  9994
2 00208  49.9928 154.2169 0000583  93.8779 266.2159 13.29329280  8884
HULIANWANG DIGUI-184    
1 00209U 26176G   26282.91563646 -.00000070  00000+0  11691-3 0  9991
2 00209  49.9963 154.1936 0000592  94.6560 265.4380 13.29329407  8880
HULIANWANG DIGUI-185    
1 00210U 26176H   26282.90728250 -.00000077  00000+0  10173-3 0  9997
2 00210  49.9936 154.1398 0000589  94.9285 265.1655 13.29329256  8881
HULIANWANG DIGUI-186    
1 00211U 26176J   26282.89891128 -.00000078  00000+0  98206-4 0  9996
2 00211  49.9937 154.0998 0000581  96.2146 263.8792 13.29329367  8881
HULIANWANG DIGUI-187    
1 00356U 26187A   26281.91661561 -.00000054  00000+0  13072-3 0  9997
2 00356  49.9948 128.1599 0001331 130.9642 229.1351 13.43473753  7399
HULIANWANG DIGUI-188    
1 00357U 26187B   26282.26584117 -.00000060  00000+0  12142-3 0  9992
2 00357  49.9973 127.3377 0000472 115.6033 244.4894 13.42102079  7438
HULIANWANG DIGUI-189    
1 00358U 26187C   26282.03576946 -.00000099  00000+0  52609-4 0  9994
2 00358  49.9968 128.1211 0001127  14.9621 345.1290 13.42250272  7406
HULIANWANG DIGUI-190    
1 00359U 26187D   26281.13546113 -.00000104  00000+0  42933-4 0  9994
2 00359  49.9927 131.3403 0000857 123.5924 236.5036 13.43558171  7280
HULIANWANG DIGUI-191    
1 00360U 26187E   26281.93941900 -.00000101  00000+0  48681-4 0  9990
2 00360  50.0073 128.2986 0000453  49.1837 310.9081 13.43171864  7395
HULIANWANG DIGUI-192    
1 00361U 26187F   26281.94684978 -.00000100  00000+0  50039-4 0  9990
2 00361  49.9989 128.2898 0002001  54.6209 305.4856 13.42571642  7392
HULIANWANG DIGUI-193    
1 00362U 26187G   26281.93062747 -.00000033  00000+0  16755-3 0  9995
2 00362  50.0217 128.2223 0002034  68.9484 291.1611 13.42550338  7390
HULIANWANG DIGUI-194    
1 00363U 26187H   26281.99914828 -.00000042  00000+0  15129-3 0  9992
2 00363  50.0006 127.9242 0001670  38.4299 321.6698 13.42996237  7403
HULIANWANG DIGUI-195    
1 00364U 26187J   26282.50473170 -.00000043  00000+0  14994-3 0  9991
2 00364  49.9919 125.9238 0001513 160.3334 199.7603 13.42811424  7479
HULIANWANG DIGUI-196    
1 00714U 26213A   26282.56476512 -.00000067  00000+0  65975-4 0  9991
2 00714  49.9946 223.3833 0003327 324.0821  35.9852 13.87465922  3141
HULIANWANG DIGUI-197    
1 00715U 26213B   26282.56169707 -.00000213  00000+0 -57623-4 0  9992
2 00715  49.9985 223.3617 0003726 298.0039  62.0481 13.87507091  3142
HULIANWANG DIGUI-198    
1 00716U 26213C   26282.77679675 -.00000122  00000+0  19546-4 0  9996
2 00716  50.0023 222.4870 0004053 280.6532  79.3908 13.87254443  3177
HULIANWANG DIGUI-199    
1 00717U 26213D   26282.77586513 -.00000070  00000+0  63039-4 0  9993
2 00717  49.9684 222.4790 0001587 344.1479  15.9368 13.87333259  3173
HULIANWANG DIGUI-200    
1 00718U 26213E   26282.55859284 -.00000080  00000+0  54826-4 0  9993
2 00718  49.9995 223.3550 0002829 306.8238  53.2400 13.87515806  3139
HULIANWANG DIGUI-201    
1 00719U 26213F   26282.55769338 -.00000073  00000+0  61168-4 0  9993
2 00719  50.0020 223.3458 0002408 299.9833  60.0825 13.87508794  3130
HULIANWANG DIGUI-202    
1 00720U 26213G   26282.55665215 -.00000075  00000+0  58875-4 0  9997
2 00720  49.9984 223.3206 0001933 309.6888  50.3839 13.87493885  3131
HULIANWANG DIGUI-203    
1 00721U 26213H   26282.55571095 -.00000122  00000+0  19093-4 0  9992
2 00721  50.0174 223.3280 0003140 296.6818  63.3758 13.87539992  3132
HULIANWANG DIGUI-204    
1 00722U 26213J   26282.55269616 -.00000099  00000+0  39054-4 0  9998
2 00722  49.9976 223.3048 0001790 307.3392  52.7342 13.87514400  3136
HULIANWANG DIGUI-205    
1 00791U 26221A   26280.49481944 -.00000101  00000+0  49524-4 0  9991
2 00791  50.0562 103.3670 0013193 291.7818  68.1652 13.32755870  1875
HULIANWANG DIGUI-206    
1 00792U 26221B   26281.83844281 -.00000099  00000+0  53065-4 0  9999
2 00792  49.9921  98.4307 0000283 162.5460 197.5423 13.32499056  2052
HULIANWANG DIGUI-207    
1 00793U 26221C   26282.50608566 -.00000113  00000+0  24424-4 0  9993
2 00793  49.9814  95.9520 0001751 156.6148 203.4805 13.32674885  2136
HULIANWANG DIGUI-208    
1 00794U 26221D   26282.57546924 -.00000116  00000+0  19196-4 0  9993
2 00794  49.9930  95.6647 0000851 247.4997 112.5787 13.33734698  2155
HULIANWANG DIGUI-209    
1 00795U 26221E   26282.49459419 -.00000114  00000+0  24366-4 0  9990
2 00795  50.0125  95.9121 0005213 285.9533  74.0767 13.34636161  2141
HULIANWANG DIGUI-210    
1 00796U 26221F   26281.74042322 -.00000108  00000+0  35004-4 0  9993
2 00796  49.9973  98.5981 0000171 173.3500 186.7377 13.35704905  2034
HULIANWANG DIGUI-211    
1 00797U 26221G   26278.59783535 -.00000118  00000+0  17185-4 0  9992
2 00797  50.0038 109.9983 0003709 272.2953  87.7498 13.38952603  1621
HULIANWANG DIGUI-212    
1 00798U 26221H   26282.47899084 -.00000110  00000+0  32677-4 0  9997
2 00798  49.9990  95.8378 0000168 144.5355 215.5532 13.37360518  2123
HULIANWANG DIGUI-213    
1 00799U 26221J   26282.17498494 -.00000110  00000+0  32656-4 0  9992
2 00799  49.9986  96.9029 0000311   1.0275 359.0601 13.37987259  2096
